CCSDS_OMM_VERS = 2.0
CREATION_DATE  = 
ORIGINATOR     = 

OBJECT_NAME    = STARLINK-36800
OBJECT_ID      = 2026-032A
CENTER_NAME    = EARTH
REF_FRAME      = TEME
TIME_SYSTEM    = UTC
MEAN_ELEMENT_THEORY = SGP/SGP4

EPOCH          = 2026-03-17T04:00:01.999584
MEAN_MOTION    = 15.75221426
ECCENTRICITY   = .0001566
INCLINATION    = 97.2837
RA_OF_ASC_NODE = 263.0176
ARG_OF_PERICENTER = 84.7884
MEAN_ANOMALY   = 144.4723

EPHEMERIS_TYPE = 0
CLASSIFICATION_TYPE = U
NORAD_CAT_ID   = 67797
ELEMENT_SET_NO = 999
REV_AT_EPOCH   = 598
BSTAR          = -.62857E-3
MEAN_MOTION_DOT = -.93001E-3
MEAN_MOTION_DDOT = 0

CCSDS_OMM_VERS = 2.0
CREATION_DATE  = 
ORIGINATOR     = 

OBJECT_NAME    = STARLINK-36798
OBJECT_ID      = 2026-032B
CENTER_NAME    = EARTH
REF_FRAME      = TEME
TIME_SYSTEM    = UTC
MEAN_ELEMENT_THEORY = SGP/SGP4

EPOCH          = 2026-03-17T01:06:58.260960
MEAN_MOTION    = 15.75187735
ECCENTRICITY   = .0003528
INCLINATION    = 97.2816
RA_OF_ASC_NODE = 262.9283
ARG_OF_PERICENTER = 83.3018
MEAN_ANOMALY   = 276.8649

EPHEMERIS_TYPE = 0
CLASSIFICATION_TYPE = U
NORAD_CAT_ID   = 67798
ELEMENT_SET_NO = 999
REV_AT_EPOCH   = 594
BSTAR          = .15436E-2
MEAN_MOTION_DOT = .23662E-2
MEAN_MOTION_DDOT = 0

CCSDS_OMM_VERS = 2.0
CREATION_DATE  = 
ORIGINATOR     = 

OBJECT_NAME    = STARLINK-36804
OBJECT_ID      = 2026-032C
CENTER_NAME    = EARTH
REF_FRAME      = TEME
TIME_SYSTEM    = UTC
MEAN_ELEMENT_THEORY = SGP/SGP4

EPOCH          = 2026-03-17T01:27:48.149280
MEAN_MOTION    = 15.75191252
ECCENTRICITY   = .0002459
INCLINATION    = 97.2831
RA_OF_ASC_NODE = 262.9087
ARG_OF_PERICENTER = 53.3144
MEAN_ANOMALY   = 306.8346

EPHEMERIS_TYPE = 0
CLASSIFICATION_TYPE = U
NORAD_CAT_ID   = 67799
ELEMENT_SET_NO = 999
REV_AT_EPOCH   = 594
BSTAR          = .13381E-2
MEAN_MOTION_DOT = .204323E-2
MEAN_MOTION_DDOT = 0

CCSDS_OMM_VERS = 2.0
CREATION_DATE  = 
ORIGINATOR     = 

OBJECT_NAME    = STARLINK-36354
OBJECT_ID      = 2026-032D
CENTER_NAME    = EARTH
REF_FRAME      = TEME
TIME_SYSTEM    = UTC
MEAN_ELEMENT_THEORY = SGP/SGP4

EPOCH          = 2026-03-17T01:12:02.649024
MEAN_MOTION    = 15.75176762
ECCENTRICITY   = .0001478
INCLINATION    = 97.2834
RA_OF_ASC_NODE = 262.9270
ARG_OF_PERICENTER = 81.1079
MEAN_ANOMALY   = 279.0354

EPHEMERIS_TYPE = 0
CLASSIFICATION_TYPE = U
NORAD_CAT_ID   = 67800
ELEMENT_SET_NO = 999
REV_AT_EPOCH   = 594
BSTAR          = .18552E-2
MEAN_MOTION_DOT = .285896E-2
MEAN_MOTION_DDOT = 0

CCSDS_OMM_VERS = 2.0
CREATION_DATE  = 
ORIGINATOR     = 

OBJECT_NAME    = STARLINK-36773
OBJECT_ID      = 2026-032E
CENTER_NAME    = EARTH
REF_FRAME      = TEME
TIME_SYSTEM    = UTC
MEAN_ELEMENT_THEORY = SGP/SGP4

EPOCH          = 2026-03-17T04:26:10.745376
MEAN_MOTION    = 15.75210693
ECCENTRICITY   = .0001631
INCLINATION    = 97.2842
RA_OF_ASC_NODE = 263.0477
ARG_OF_PERICENTER = 113.7176
MEAN_ANOMALY   = 246.4260

EPHEMERIS_TYPE = 0
CLASSIFICATION_TYPE = U
NORAD_CAT_ID   = 67801
ELEMENT_SET_NO = 999
REV_AT_EPOCH   = 596
BSTAR          = .1288E-2
MEAN_MOTION_DOT = .196649E-2
MEAN_MOTION_DDOT = 0

CCSDS_OMM_VERS = 2.0
CREATION_DATE  = 
ORIGINATOR     = 

OBJECT_NAME    = STARLINK-36739
OBJECT_ID      = 2026-032F
CENTER_NAME    = EARTH
REF_FRAME      = TEME
TIME_SYSTEM    = UTC
MEAN_ELEMENT_THEORY = SGP/SGP4

EPOCH          = 2026-03-17T00:56:48.157728
MEAN_MOTION    = 15.75202127
ECCENTRICITY   = .0002572
INCLINATION    = 97.2826
RA_OF_ASC_NODE = 262.9384
ARG_OF_PERICENTER = 72.9555
MEAN_ANOMALY   = 287.1992

EPHEMERIS_TYPE = 0
CLASSIFICATION_TYPE = U
NORAD_CAT_ID   = 67802
ELEMENT_SET_NO = 999
REV_AT_EPOCH   = 594
BSTAR          = .12808E-2
MEAN_MOTION_DOT = .195468E-2
MEAN_MOTION_DDOT = 0

CCSDS_OMM_VERS = 2.0
CREATION_DATE  = 
ORIGINATOR     = 

OBJECT_NAME    = STARLINK-36768
OBJECT_ID      = 2026-032G
CENTER_NAME    = EARTH
REF_FRAME      = TEME
TIME_SYSTEM    = UTC
MEAN_ELEMENT_THEORY = SGP/SGP4

EPOCH          = 2026-03-17T01:14:34.832256
MEAN_MOTION    = 15.75181489
ECCENTRICITY   = .0000903
INCLINATION    = 97.2826
RA_OF_ASC_NODE = 262.9212
ARG_OF_PERICENTER = 101.9868
MEAN_ANOMALY   = 258.1498

EPHEMERIS_TYPE = 0
CLASSIFICATION_TYPE = U
NORAD_CAT_ID   = 67803
ELEMENT_SET_NO = 999
REV_AT_EPOCH   = 594
BSTAR          = .21398E-2
MEAN_MOTION_DOT = .331633E-2
MEAN_MOTION_DDOT = 0

CCSDS_OMM_VERS = 2.0
CREATION_DATE  = 
ORIGINATOR     = 

OBJECT_NAME    = STARLINK-36792
OBJECT_ID      = 2026-032H
CENTER_NAME    = EARTH
REF_FRAME      = TEME
TIME_SYSTEM    = UTC
MEAN_ELEMENT_THEORY = SGP/SGP4

EPOCH          = 2026-03-16T23:46:40.009440
MEAN_MOTION    = 15.75382311
ECCENTRICITY   = .0001848
INCLINATION    = 97.2834
RA_OF_ASC_NODE = 262.8509
ARG_OF_PERICENTER = 37.5224
MEAN_ANOMALY   = 322.6170

EPHEMERIS_TYPE = 0
CLASSIFICATION_TYPE = U
NORAD_CAT_ID   = 67804
ELEMENT_SET_NO = 999
REV_AT_EPOCH   = 593
BSTAR          = .15195E-2
MEAN_MOTION_DOT = .234804E-2
MEAN_MOTION_DDOT = 0

CCSDS_OMM_VERS = 2.0
CREATION_DATE  = 
ORIGINATOR     = 

OBJECT_NAME    = STARLINK-36782
OBJECT_ID      = 2026-032J
CENTER_NAME    = EARTH
REF_FRAME      = TEME
TIME_SYSTEM    = UTC
MEAN_ELEMENT_THEORY = SGP/SGP4

EPOCH          = 2026-03-17T00:42:34.288128
MEAN_MOTION    = 15.75214046
ECCENTRICITY   = .0002006
INCLINATION    = 97.2817
RA_OF_ASC_NODE = 262.9516
ARG_OF_PERICENTER = 76.3896
MEAN_ANOMALY   = 283.7593

EPHEMERIS_TYPE = 0
CLASSIFICATION_TYPE = U
NORAD_CAT_ID   = 67805
ELEMENT_SET_NO = 999
REV_AT_EPOCH   = 594
BSTAR          = .13117E-2
MEAN_MOTION_DOT = .200392E-2
MEAN_MOTION_DDOT = 0

CCSDS_OMM_VERS = 2.0
CREATION_DATE  = 
ORIGINATOR     = 

OBJECT_NAME    = STARLINK-36389
OBJECT_ID      = 2026-032K
CENTER_NAME    = EARTH
REF_FRAME      = TEME
TIME_SYSTEM    = UTC
MEAN_ELEMENT_THEORY = SGP/SGP4

EPOCH          = 2026-03-17T01:01:51.783744
MEAN_MOTION    = 15.75232417
ECCENTRICITY   = .00029
INCLINATION    = 97.2819
RA_OF_ASC_NODE = 262.9322
ARG_OF_PERICENTER = 181.5714
MEAN_ANOMALY   = 178.5542

EPHEMERIS_TYPE = 0
CLASSIFICATION_TYPE = U
NORAD_CAT_ID   = 67806
ELEMENT_SET_NO = 999
REV_AT_EPOCH   = 594
BSTAR          = .11331E-2
MEAN_MOTION_DOT = .172671E-2
MEAN_MOTION_DDOT = 0

CCSDS_OMM_VERS = 2.0
CREATION_DATE  = 
ORIGINATOR     = 

OBJECT_NAME    = STARLINK-36382
OBJECT_ID      = 2026-032L
CENTER_NAME    = EARTH
REF_FRAME      = TEME
TIME_SYSTEM    = UTC
MEAN_ELEMENT_THEORY = SGP/SGP4

EPOCH          = 2026-03-17T00:58:50.265984
MEAN_MOTION    = 15.75190257
ECCENTRICITY   = .0002932
INCLINATION    = 97.2814
RA_OF_ASC_NODE = 262.9336
ARG_OF_PERICENTER = 71.5822
MEAN_ANOMALY   = 288.5762

EPHEMERIS_TYPE = 0
CLASSIFICATION_TYPE = U
NORAD_CAT_ID   = 67807
ELEMENT_SET_NO = 999
REV_AT_EPOCH   = 594
BSTAR          = .12759E-2
MEAN_MOTION_DOT = .194601E-2
MEAN_MOTION_DDOT = 0

CCSDS_OMM_VERS = 2.0
CREATION_DATE  = 
ORIGINATOR     = 

OBJECT_NAME    = STARLINK-36811
OBJECT_ID      = 2026-032M
CENTER_NAME    = EARTH
REF_FRAME      = TEME
TIME_SYSTEM    = UTC
MEAN_ELEMENT_THEORY = SGP/SGP4

EPOCH          = 2026-03-17T00:44:36.418848
MEAN_MOTION    = 15.75201757
ECCENTRICITY   = .0002032
INCLINATION    = 97.2828
RA_OF_ASC_NODE = 262.9497
ARG_OF_PERICENTER = 75.0332
MEAN_ANOMALY   = 285.1158

EPHEMERIS_TYPE = 0
CLASSIFICATION_TYPE = U
NORAD_CAT_ID   = 67808
ELEMENT_SET_NO = 999
REV_AT_EPOCH   = 594
BSTAR          = .14063E-2
MEAN_MOTION_DOT = .215112E-2
MEAN_MOTION_DDOT = 0

