STARLINK-36800          
1 67797U 26032A   26076.16668981 -.00093001  00000+0 -62857-3 0  9990
2 67797  97.2837 263.0176 0001566  84.7884 144.4723 15.75221426  5988
STARLINK-36798          
1 67798U 26032B   26076.04650765  .00236620  00000+0  15436-2 0  9993
2 67798  97.2816 262.9283 0003528  83.3018 276.8649 15.75187735  5944
STARLINK-36804          
1 67799U 26032C   26076.06097395  .00204323  00000+0  13381-2 0  9992
2 67799  97.2831 262.9087 0002459  53.3144 306.8346 15.75191252  5940
STARLINK-36354          
1 67800U 26032D   26076.05003066  .00285896  00000+0  18552-2 0  9995
2 67800  97.2834 262.9270 0001478  81.1079 279.0354 15.75176762  5945
STARLINK-36773          
1 67801U 26032E   26076.18484659  .00196649  00000+0  12880-2 0  9996
2 67801  97.2842 263.0477 0001631 113.7176 246.4260 15.75210693  5965
STARLINK-36739          
1 67802U 26032F   26076.03944627  .00195468  00000+0  12808-2 0  9995
2 67802  97.2826 262.9384 0002572  72.9555 287.1992 15.75202127  5940
STARLINK-36768          
1 67803U 26032G   26076.05179204  .00331633  00000+0  21398-2 0  9999
2 67803  97.2826 262.9212 0000903 101.9868 258.1498 15.75181489  5943
STARLINK-36792          
1 67804U 26032H   26075.99074085  .00234804  00000+0  15195-2 0  9993
2 67804  97.2834 262.8509 0001848  37.5224 322.6170 15.75382311  5930
STARLINK-36782          
1 67805U 26032J   26076.02956352  .00200392  00000+0  13117-2 0  9992
2 67805  97.2817 262.9516 0002006  76.3896 283.7593 15.75214046  5940
STARLINK-36389          
1 67806U 26032K   26076.04296046  .00172671  00000+0  11331-2 0  9996
2 67806  97.2819 262.9322 0002900 181.5714 178.5542 15.75232417  5946
STARLINK-36382          
1 67807U 26032L   26076.04085956  .00194601  00000+0  12759-2 0  9995
2 67807  97.2814 262.9336 0002932  71.5822 288.5762 15.75190257  5941
STARLINK-36811          
1 67808U 26032M   26076.03097707  .00215112  00000+0  14063-2 0  9993
2 67808  97.2828 262.9497 0002032  75.0332 285.1158 15.75201757  5941
